{
  "norad_id": 58427,
  "name": "CHUANGXIN 20C (CX-20C)",
  "history": [
    {
      "epoch": "2026-03-28T21:44:21.971040Z",
      "apogee_km": 1112.3972519636127,
      "perigee_km": 1095.1686349098609,
      "latitude_deg": 4.29011004783589e-05,
      "longitude_deg": 108.73104701046722,
      "height_km": 1096.0275706255125,
      "semi_major_axis_km": 7481.9199434367365,
      "eccentricity": 0.00115135,
      "inclination_deg": 49.9578,
      "raan_deg": 261.1421,
      "arg_perigee_deg": 16.5849,
      "mean_anomaly_deg": 343.5403,
      "mean_motion_rev_day": 13.41476832
    },
    {
      "epoch": "2026-03-29T04:53:28.428864Z",
      "apogee_km": 1112.3937771462815,
      "perigee_km": 1095.1718940686806,
      "latitude_deg": 3.11899164266105e-06,
      "longitude_deg": 0.0675924812111966,
      "height_km": 1096.069754558731,
      "semi_major_axis_km": 7481.91983560748,
      "eccentricity": 0.0011509,
      "inclination_deg": 49.9578,
      "raan_deg": 260.0493,
      "arg_perigee_deg": 17.4786,
      "mean_anomaly_deg": 342.6485,
      "mean_motion_rev_day": 13.41476861
    },
    {
      "epoch": "2026-03-30T04:08:04.415712Z",
      "apogee_km": 1112.3759656823268,
      "perigee_km": 1095.1885008197014,
      "latitude_deg": 4.0589812550856996e-05,
      "longitude_deg": 6.911709581350631,
      "height_km": 1096.2264646591357,
      "semi_major_axis_km": 7481.919233251014,
      "eccentricity": 0.0011486,
      "inclination_deg": 49.9579,
      "raan_deg": 256.4979,
      "arg_perigee_deg": 20.3929,
      "mean_anomaly_deg": 339.7405,
      "mean_motion_rev_day": 13.41477023
    },
    {
      "epoch": "2026-03-30T05:55:21.031680Z",
      "apogee_km": 1112.3759991850093,
      "perigee_km": 1095.1885342455098,
      "latitude_deg": -2.2915562999881148e-05,
      "longitude_deg": -20.25420507724094,
      "height_km": 1096.2382159332535,
      "semi_major_axis_km": 7481.919266715259,
      "eccentricity": 0.0011486,
      "inclination_deg": 49.9579,
      "raan_deg": 256.2247,
      "arg_perigee_deg": 20.6171,
      "mean_anomaly_deg": 339.5167,
      "mean_motion_rev_day": 13.41477014
    },
    {
      "epoch": "2026-03-30T14:51:44.101152Z",
      "apogee_km": 1112.3642529406643,
      "perigee_km": 1095.200131759877,
      "latitude_deg": 7.428884552725181e-06,
      "longitude_deg": -156.08334421581986,
      "height_km": 1096.3100223690456,
      "semi_major_axis_km": 7481.91919235027,
      "eccentricity": 0.00114704,
      "inclination_deg": 49.9579,
      "raan_deg": 254.8588,
      "arg_perigee_deg": 21.7502,
      "mean_anomaly_deg": 338.386,
      "mean_motion_rev_day": 13.41477034
    },
    {
      "epoch": "2026-03-30T22:00:50.556384Z",
      "apogee_km": 1112.3670298024308,
      "perigee_km": 1095.1969235812003,
      "latitude_deg": 3.5908526390644156e-05,
      "longitude_deg": 95.2533694321732,
      "height_km": 1096.3585901198983,
      "semi_major_axis_km": 7481.918976691815,
      "eccentricity": 0.00114744,
      "inclination_deg": 49.9578,
      "raan_deg": 253.7661,
      "arg_perigee_deg": 22.6664,
      "mean_anomaly_deg": 337.4718,
      "mean_motion_rev_day": 13.41477092
    },
    {
      "epoch": "2026-03-31T19:28:09.920352Z",
      "apogee_km": 1112.3642625991306,
      "perigee_km": 1095.199244594628,
      "latitude_deg": -2.2274814389978774e-05,
      "longitude_deg": 129.26329772205074,
      "height_km": 1096.5254286342868,
      "semi_major_axis_km": 7481.918753596879,
      "eccentricity": 0.0011471,
      "inclination_deg": 49.9579,
      "raan_deg": 250.4879,
      "arg_perigee_deg": 25.3823,
      "mean_anomaly_deg": 334.7615,
      "mean_motion_rev_day": 13.41477152
    },
    {
      "epoch": "2026-04-01T20:30:02.499840Z",
      "apogee_km": 1112.3563935393277,
      "perigee_km": 1095.2063402587228,
      "latitude_deg": 5.1207463967712726e-05,
      "longitude_deg": 108.94178145895393,
      "height_km": 1096.745022901372,
      "semi_major_axis_km": 7481.918366899025,
      "eccentricity": 0.0011461,
      "inclination_deg": 49.9578,
      "raan_deg": 246.6634,
      "arg_perigee_deg": 28.5413,
      "mean_anomaly_deg": 331.609,
      "mean_motion_rev_day": 13.41477256
    },
    {
      "epoch": "2026-04-02T19:44:38.459904Z",
      "apogee_km": 1112.341831701695,
      "perigee_km": 1095.2202105022052,
      "latitude_deg": -1.5851791612752353e-06,
      "longitude_deg": 115.7859351507238,
      "height_km": 1096.973712857101,
      "semi_major_axis_km": 7481.91802110195,
      "eccentricity": 0.0011442,
      "inclination_deg": 49.9584,
      "raan_deg": 243.112,
      "arg_perigee_deg": 31.4529,
      "mean_anomaly_deg": 328.703,
      "mean_motion_rev_day": 13.41477349
    },
    {
      "epoch": "2026-04-02T23:19:11.682336Z",
      "apogee_km": 1112.3426293934117,
      "perigee_km": 1095.219063295197,
      "latitude_deg": 1.3379527988813833e-05,
      "longitude_deg": 61.45426417144824,
      "height_km": 1097.007701265907,
      "semi_major_axis_km": 7481.917846344304,
      "eccentricity": 0.00114433,
      "inclination_deg": 49.9584,
      "raan_deg": 242.5656,
      "arg_perigee_deg": 31.9009,
      "mean_anomaly_deg": 328.2559,
      "mean_motion_rev_day": 13.41477396
    },
    {
      "epoch": "2026-04-03T20:46:31.022112Z",
      "apogee_km": 1112.3322056855104,
      "perigee_km": 1095.2285425682576,
      "latitude_deg": 6.283589814423976e-06,
      "longitude_deg": 95.4643349691229,
      "height_km": 1097.236854758109,
      "semi_major_axis_km": 7481.917374126884,
      "eccentricity": 0.001143,
      "inclination_deg": 49.9584,
      "raan_deg": 239.2874,
      "arg_perigee_deg": 34.6147,
      "mean_anomaly_deg": 325.5472,
      "mean_motion_rev_day": 13.41477523
    },
    {
      "epoch": "2026-04-04T20:01:06.968352Z",
      "apogee_km": 1112.3135083370516,
      "perigee_km": 1095.247254789706,
      "latitude_deg": 2.475132625297929e-05,
      "longitude_deg": 102.30860443821659,
      "height_km": 1097.504921066717,
      "semi_major_axis_km": 7481.9173815633785,
      "eccentricity": 0.0011405,
      "inclination_deg": 49.9585,
      "raan_deg": 235.736,
      "arg_perigee_deg": 37.5082,
      "mean_anomaly_deg": 322.6589,
      "mean_motion_rev_day": 13.41477521
    },
    {
      "epoch": "2026-04-05T13:53:53.065824Z",
      "apogee_km": 1112.3003606226148,
      "perigee_km": 1095.2596960372312,
      "latitude_deg": 6.15110667462337e-05,
      "longitude_deg": -169.34962262831982,
      "height_km": 1097.7209572613851,
      "semi_major_axis_km": 7481.917028329923,
      "eccentricity": 0.00113879,
      "inclination_deg": 49.9586,
      "raan_deg": 233.0041,
      "arg_perigee_deg": 39.7383,
      "mean_anomaly_deg": 320.4327,
      "mean_motion_rev_day": 13.41477616
    },
    {
      "epoch": "2026-04-05T21:02:59.507232Z",
      "apogee_km": 1112.2994527338114,
      "perigee_km": 1095.2601354269727,
      "latitude_deg": 3.343310424582016e-05,
      "longitude_deg": 81.98710061499453,
      "height_km": 1097.8059454108666,
      "semi_major_axis_km": 7481.916794080392,
      "eccentricity": 0.0011387,
      "inclination_deg": 49.9586,
      "raan_deg": 231.9114,
      "arg_perigee_deg": 40.6243,
      "mean_anomaly_deg": 319.5482,
      "mean_motion_rev_day": 13.41477679
    },
    {
      "epoch": "2026-04-06T07:46:39.164160Z",
      "apogee_km": 1112.293007487563,
      "perigee_km": 1095.2664096338904,
      "latitude_deg": 1.0255297036205104e-05,
      "longitude_deg": -81.0078272510233,
      "height_km": 1097.941636621715,
      "semi_major_axis_km": 7481.916708560726,
      "eccentricity": 0.00113785,
      "inclination_deg": 49.9587,
      "raan_deg": 230.2723,
      "arg_perigee_deg": 41.9642,
      "mean_anomaly_deg": 318.2105,
      "mean_motion_rev_day": 13.41477702
    }
  ]
}